{
    "links": {
        "self": "http://www.neowsapp.com/rest/v1/neo/3838123?api_key=iIulBulltgU6a56xZRHN4H3l9WmuAYTsLGpBGhQ2"
    },
    "id": "3838123",
    "neo_reference_id": "3838123",
    "name": "(2019 CN1)",
    "designation": "2019 CN1",
    "nasa_jpl_url": "http://ssd.jpl.nasa.gov/sbdb.cgi?sstr=3838123",
    "absolute_magnitude_h": 20.9,
    "estimated_diameter": {
        "kilometers": {
            "estimated_diameter_min": 0.1756123185,
            "estimated_diameter_max": 0.3926810818
        },
        "meters": {
            "estimated_diameter_min": 175.6123184804,
            "estimated_diameter_max": 392.6810818086
        },
        "miles": {
            "estimated_diameter_min": 0.1091204019,
            "estimated_diameter_max": 0.2440006365
        },
        "feet": {
            "estimated_diameter_min": 576.1559189633,
            "estimated_diameter_max": 1288.3238004408
        }
    },
    "is_potentially_hazardous_asteroid": false,
    "close_approach_data": [
        {
            "close_approach_date": "2019-01-30",
            "close_approach_date_full": "2019-Jan-30 17:24",
            "epoch_date_close_approach": 1548869040000,
            "relative_velocity": {
                "kilometers_per_second": "19.3611175666",
                "kilometers_per_hour": "69700.0232396495",
                "miles_per_hour": "43308.8838846589"
            },
            "miss_distance": {
                "astronomical": "0.4015501894",
                "lunar": "156.2030236766",
                "kilometers": "60071053.032336578",
                "miles": "37326421.5051296564"
            },
            "orbiting_body": "Earth"
        }
    ],
    "orbital_data": {
        "orbit_id": "6",
        "orbit_determination_date": "2019-03-13 06:55:03",
        "first_observation_date": "2019-02-04",
        "last_observation_date": "2019-03-12",
        "data_arc_in_days": 36,
        "observations_used": 49,
        "orbit_uncertainty": "7",
        "minimum_orbit_intersection": ".328454",
        "jupiter_tisserand_invariant": "3.149",
        "epoch_osculation": "2459000.5",
        "eccentricity": ".4914630448345725",
        "semi_major_axis": "2.339413382269026",
        "inclination": "37.61980743079692",
        "ascending_node_longitude": "140.3213128325482",
        "orbital_period": "1306.949725017896",
        "perihelion_distance": "1.189678158292345",
        "perihelion_argument": "309.5242342197461",
        "aphelion_distance": "3.489148606245708",
        "perihelion_time": "2458456.337995092236",
        "mean_anomaly": "149.8897149728636",
        "mean_motion": ".2754505342545372",
        "equinox": "J2000",
        "orbit_class": {
            "orbit_class_type": "AMO",
            "orbit_class_description": "Near-Earth asteroid orbits similar to that of 1221 Amor",
            "orbit_class_range": "1.017 AU < q (perihelion) < 1.3 AU"
        }
    },
    "is_sentry_object": false
}